{
  "type": "FeatureCollection",
  "features": [
    {
      "type": "Feature",
      "properties": {
        "norad_id": 30940,
        "name": "FENGYUN 1C DEB",
        "group": "fengyun-1c-debris",
        "lat": 11.51439959135819,
        "lon": 173.20590700904964,
        "alt_km": 896.0172229647123,
        "timestamp": "2025-12-17T07:00:47.184129+00:00",
        "meta_object_name": "FENGYUN 1C DEB",
        "meta_object_id": "1999-025BAE",
        "meta_epoch": "2025-12-16T23:39:40.142592",
        "meta_mean_motion": 14.08311851,
        "meta_eccentricity": 0.00408669,
        "meta_inclination": 98.6231,
        "meta_ra_of_asc_node": 351.1417,
        "meta_arg_of_pericenter": 351.6299,
        "meta_mean_anomaly": 64.3799,
        "meta_ephemeris_type": 0,
        "meta_classification_type": "U",
        "meta_norad_cat_id": 30940,
        "meta_element_set_no": 999,
        "meta_rev_at_epoch": 96192,
        "meta_bstar": 0.00036834682,
        "meta_mean_motion_dot": 5.93e-06,
        "meta_mean_motion_ddot": 0,
        "tle_line1": "1 30940U 99025BAE 25350.98588128  .00000593  00000+0  36835-3 0  9999",
        "tle_line2": "2 30940  98.6231 351.1417 0040866 351.6299  64.3799 14.08311851961925"
      },
      "geometry": {
        "type": "Point",
        "coordinates": [
          173.20590700904964,
          11.51439959135819
        ]
      }
    },
    {
      "type": "Feature",
      "properties": {
        "norad_id": 30941,
        "name": "FENGYUN 1C DEB",
        "group": "fengyun-1c-debris",
        "lat": -78.5037471220326,
        "lon": -104.26040587025152,
        "alt_km": 773.6058881141216,
        "timestamp": "2025-12-17T07:00:47.184140+00:00",
        "meta_object_name": "FENGYUN 1C DEB",
        "meta_object_id": "1999-025BAF",
        "meta_epoch": "2025-12-16T12:56:12.185952",
        "meta_mean_motion": 14.3107633,
        "meta_eccentricity": 0.00338881,
        "meta_inclination": 98.5491,
        "meta_ra_of_asc_node": 207.3009,
        "meta_arg_of_pericenter": 306.0217,
        "meta_mean_anomaly": 53.7827,
        "meta_ephemeris_type": 0,
        "meta_classification_type": "U",
        "meta_norad_cat_id": 30941,
        "meta_element_set_no": 999,
        "meta_rev_at_epoch": 96680,
        "meta_bstar": 0.0015073609,
        "meta_mean_motion_dot": 3.955e-05,
        "meta_mean_motion_ddot": 0,
        "tle_line1": "1 30941U 99025BAF 25350.53902993  .00003955  00000+0  15074-2 0  9997",
        "tle_line2": "2 30941  98.5491 207.3009 0033888 306.0217  53.7827 14.31076330966804"
      },
      "geometry": {
        "type": "Point",
        "coordinates": [
          -104.26040587025152,
          -78.5037471220326
        ]
      }
    },
    {
      "type": "Feature",
      "properties": {
        "norad_id": 30942,
        "name": "FENGYUN 1C DEB",
        "group": "fengyun-1c-debris",
        "lat": 18.01201830030666,
        "lon": -13.437121653940732,
        "alt_km": 816.103105547787,
        "timestamp": "2025-12-17T07:00:47.184151+00:00",
        "meta_object_name": "FENGYUN 1C DEB",
        "meta_object_id": "1999-025BAG",
        "meta_epoch": "2025-12-16T18:08:59.972352",
        "meta_mean_motion": 14.1484202,
        "meta_eccentricity": 0.01380243,
        "meta_inclination": 98.6797,
        "meta_ra_of_asc_node": 348.8885,
        "meta_arg_of_pericenter": 94.8865,
        "meta_mean_anomaly": 76.6147,
        "meta_ephemeris_type": 0,
        "meta_classification_type": "U",
        "meta_norad_cat_id": 30942,
        "meta_element_set_no": 999,
        "meta_rev_at_epoch": 96701,
        "meta_bstar": 0.0002068947,
        "meta_mean_motion_dot": 3.96e-06,
        "meta_mean_motion_ddot": 0,
        "tle_line1": "1 30942U 99025BAG 25350.75624968  .00000396  00000+0  20689-3 0  9990",
        "tle_line2": "2 30942  98.6797 348.8885 0138024  94.8865  76.6147 14.14842020967018"
      },
      "geometry": {
        "type": "Point",
        "coordinates": [
          -13.437121653940732,
          18.01201830030666
        ]
      }
    },
    {
      "type": "Feature",
      "properties": {
        "norad_id": 30943,
        "name": "FENGYUN 1C DEB",
        "group": "fengyun-1c-debris",
        "lat": -9.09033928833216,
        "lon": -176.3489915449272,
        "alt_km": 908.6426834295135,
        "timestamp": "2025-12-17T07:00:47.184162+00:00",
        "meta_object_name": "FENGYUN 1C DEB",
        "meta_object_id": "1999-025BAH",
        "meta_epoch": "2025-12-16T06:11:00.155616",
        "meta_mean_motion": 14.04492174,
        "meta_eccentricity": 0.00507402,
        "meta_inclination": 98.7971,
        "meta_ra_of_asc_node": 4.0685,
        "meta_arg_of_pericenter": 56.0453,
        "meta_mean_anomaly": 304.5522,
        "meta_ephemeris_type": 0,
        "meta_classification_type": "U",
        "meta_norad_cat_id": 30943,
        "meta_element_set_no": 999,
        "meta_rev_at_epoch": 95791,
        "meta_bstar": 0.00044951909,
        "meta_mean_motion_dot": 6.83e-06,
        "meta_mean_motion_ddot": 0,
        "tle_line1": "1 30943U 99025BAH 25350.25764069  .00000683  00000+0  44952-3 0  9991",
        "tle_line2": "2 30943  98.7971   4.0685 0050740  56.0453 304.5522 14.04492174957912"
      },
      "geometry": {
        "type": "Point",
        "coordinates": [
          -176.3489915449272,
          -9.09033928833216
        ]
      }
    },
    {
      "type": "Feature",
      "properties": {
        "norad_id": 30944,
        "name": "FENGYUN 1C DEB",
        "group": "fengyun-1c-debris",
        "lat": 72.56915374729,
        "lon": 17.48559791922735,
        "alt_km": 606.9628861424426,
        "timestamp": "2025-12-17T07:00:47.184173+00:00",
        "meta_object_name": "FENGYUN 1C DEB",
        "meta_object_id": "1999-025BAJ",
        "meta_epoch": "2025-12-16T09:27:37.279008",
        "meta_mean_motion": 14.52449128,
        "meta_eccentricity": 0.0149266,
        "meta_inclination": 98.8504,
        "meta_ra_of_asc_node": 46.2915,
        "meta_arg_of_pericenter": 89.6704,
        "meta_mean_anomaly": 332.7091,
        "meta_ephemeris_type": 0,
        "meta_classification_type": "U",
        "meta_norad_cat_id": 30944,
        "meta_element_set_no": 999,
        "meta_rev_at_epoch": 99129,
        "meta_bstar": 0.00013602966,
        "meta_mean_motion_dot": 5.85e-06,
        "meta_mean_motion_ddot": 0,
        "tle_line1": "1 30944U 99025BAJ 25350.39418147  .00000585  00000+0  13603-3 0  9990",
        "tle_line2": "2 30944  98.8504  46.2915 0149266  89.6704 332.7091 14.52449128991290"
      },
      "geometry": {
        "type": "Point",
        "coordinates": [
          17.48559791922735,
          72.56915374729
        ]
      }
    },
    {
      "type": "Feature",
      "properties": {
        "norad_id": 30945,
        "name": "FENGYUN 1C DEB",
        "group": "fengyun-1c-debris",
        "lat": 4.558921589927563,
        "lon": -178.93191332754162,
        "alt_km": 813.7255477533754,
        "timestamp": "2025-12-17T07:00:47.184184+00:00",
        "meta_object_name": "FENGYUN 1C DEB",
        "meta_object_id": "1999-025BAK",
        "meta_epoch": "2025-12-16T06:45:55.175904",
        "meta_mean_motion": 14.29744942,
        "meta_eccentricity": 0.00305457,
        "meta_inclination": 99.3902,
        "meta_ra_of_asc_node": 359.2236,
        "meta_arg_of_pericenter": 28.5823,
        "meta_mean_anomaly": 349.1653,
        "meta_ephemeris_type": 0,
        "meta_classification_type": "U",
        "meta_norad_cat_id": 30945,
        "meta_element_set_no": 999,
        "meta_rev_at_epoch": 96488,
        "meta_bstar": 0.0012467125,
        "meta_mean_motion_dot": 3.167e-05,
        "meta_mean_motion_ddot": 0,
        "tle_line1": "1 30945U 99025BAK 25350.28188861  .00003167  00000+0  12467-2 0  9991",
        "tle_line2": "2 30945  99.3902 359.2236 0030545  28.5823 349.1653 14.29744942964882"
      },
      "geometry": {
        "type": "Point",
        "coordinates": [
          -178.93191332754162,
          4.558921589927563
        ]
      }
    },
    {
      "type": "Feature",
      "properties": {
        "norad_id": 30946,
        "name": "FENGYUN 1C DEB",
        "group": "fengyun-1c-debris",
        "lat": 68.4570636877817,
        "lon": 83.01965014130667,
        "alt_km": 745.0681295383874,
        "timestamp": "2025-12-17T07:00:47.184195+00:00",
        "meta_object_name": "FENGYUN 1C DEB",
        "meta_object_id": "1999-025BAL",
        "meta_epoch": "2025-12-16T14:11:22.301376",
        "meta_mean_motion": 14.48171922,
        "meta_eccentricity": 0.00894626,
        "meta_inclination": 99.0377,
        "meta_ra_of_asc_node": 106.0471,
        "meta_arg_of_pericenter": 181.4399,
        "meta_mean_anomaly": 197.5066,
        "meta_ephemeris_type": 0,
        "meta_classification_type": "U",
        "meta_norad_cat_id": 30946,
        "meta_element_set_no": 999,
        "meta_rev_at_epoch": 98407,
        "meta_bstar": 0.0006006288,
        "meta_mean_motion_dot": 2.301e-05,
        "meta_mean_motion_ddot": 0,
        "tle_line1": "1 30946U 99025BAL 25350.59123034  .00002301  00000+0  60063-3 0  9992",
        "tle_line2": "2 30946  99.0377 106.0471 0089462 181.4399 197.5066 14.48171922984073"
      },
      "geometry": {
        "type": "Point",
        "coordinates": [
          83.01965014130667,
          68.4570636877817
        ]
      }
    }
  ]
}